SL-16 R/B               
1 22803U 93059B   26118.80118108  .00000259  00000+0  15160-3 0  9997
2 22803  70.9898 265.4483 0015705 139.6052 220.6241 14.17240038686630
ARIANE 40 R/B           
1 22830U 93061H   26118.76663602  .00000196  00000+0  87364-4 0  9995
2 22830  98.4841 186.6448 0011710 132.4009 227.8168 14.32885844701275
COSMOS 2278             
1 23087U 94023A   26118.59927931  .00000097  00000+0  75289-4 0  9991
2 23087  71.0542  70.6741 0010692 304.1700  55.8409 14.14388548651862
SL-16 R/B               
1 23088U 94023B   26118.83532878  .00000128  00000+0  90669-4 0  9995
2 23088  70.9996 325.5777 0005014 238.4864 121.5769 14.15015664653181
SL-16 R/B               
1 23343U 94074B   26118.65086609  .00000464  00000+0  68750-4 0  9990
2 23343  97.7033 147.4275 0007919  64.9001  53.0648 14.79459130694639
SL-16 R/B               
1 23405U 94077B   26118.79737345 -.00000073  00000+0 -13070-4 0  9990
2 23405  70.9833 247.0677 0000276  72.6439 287.4714 14.15572821623320
ARIANE 40+ R/B          
1 23561U 95021B   26118.79319146  .00000274  00000+0  10129-3 0  9990
2 23561  98.4427 189.5772 0006511   2.8218 108.2815 14.39805273626456
SL-16 R/B               
1 23705U 95058B   26118.87745552 -.00000241  00000+0 -98974-4 0  9994
2 23705  71.0209  74.8845 0011082  33.6441 326.5383 14.15504139574950
SL-16 R/B               
1 24298U 96051B   26118.59895670  .00000091  00000+0  76018-4 0  9998
2 24298  70.7610  69.5987 0012507  61.1127 299.1246 14.12428675528698
ORBVIEW 2 (SEASTAR)     
1 24883U 97037A   26118.74216258  .00000267  00000+0  10902-3 0  9993
2 24883  98.8645 284.4018 0001100 271.5567  88.5491 14.35527046515653
SL-16 R/B               
1 25400U 98043G   26118.82804207  .00000039  00000+0  35167-4 0  9991
2 25400  98.8331  72.5731 0009017 225.0708 134.9740 14.26060389446136
SL-16 R/B               
1 25407U 98045B   26118.86374455 -.00000074  00000+0 -13047-4 0  9995
2 25407  71.0103  76.0567 0009315 299.6940  60.3256 14.16196418434206
ISS (ZARYA)             
1 25544U 98067A   26118.65158674  .00007212  00000+0  13886-3 0  9990
2 25544  51.6320 185.2859 0007088   1.2030 358.8974 15.49006627564072
CZ-4B R/B               
1 25732U 99025C   26118.76469203  .00000057  00000+0  48192-4 0  9998
2 25732  98.6530 161.8362 0036770 199.1936 273.1936 14.18274631395263
OKEAN-O                 
1 25860U 99039A   26118.73736189  .00000679  00000+0  95766-4 0  9991
2 25860  97.9352 178.0951 0001583 113.1370 247.0009 14.80406922441795
SL-16 R/B               
1 25861U 99039B   26118.73783414  .00000590  00000+0  81386-4 0  9990
2 25861  97.9875 177.7339 0016180  94.9503 265.3557 14.81793887444272
DELTA 2 R/B             
1 25876U 99041E   26118.34688104  .00000673  00000+0  14752-3 0  9990
2 25876  51.7600 102.8993 0502422 134.8627 229.4273 14.11933837370040
