[{"OBJECT_NAME":"SL-16 R/B","OBJECT_ID":"1993-059B","EPOCH":"2026-04-28T19:13:42.045312","MEAN_MOTION":14.17240038,"ECCENTRICITY":0.0015705,"INCLINATION":70.9898,"RA_OF_ASC_NODE":265.4483,"ARG_OF_PERICENTER":139.6052,"MEAN_ANOMALY":220.6241,"EPHEMERIS_TYPE":0,"CLASSIFICATION_TYPE":"U","NORAD_CAT_ID":22803,"ELEMENT_SET_NO":999,"REV_AT_EPOCH":68663,"BSTAR":0.0001516,"MEAN_MOTION_DOT":2.59e-6,"MEAN_MOTION_DDOT":0},{"OBJECT_NAME":"ARIANE 40 R/B","OBJECT_ID":"1993-061H","EPOCH":"2026-04-28T18:23:57.352128","MEAN_MOTION":14.32885844,"ECCENTRICITY":0.001171,"INCLINATION":98.4841,"RA_OF_ASC_NODE":186.6448,"ARG_OF_PERICENTER":132.4009,"MEAN_ANOMALY":227.8168,"EPHEMERIS_TYPE":0,"CLASSIFICATION_TYPE":"U","NORAD_CAT_ID":22830,"ELEMENT_SET_NO":999,"REV_AT_EPOCH":70127,"BSTAR":8.7364e-5,"MEAN_MOTION_DOT":1.96e-6,"MEAN_MOTION_DDOT":0},{"OBJECT_NAME":"COSMOS 2278","OBJECT_ID":"1994-023A","EPOCH":"2026-04-28T14:22:57.732384","MEAN_MOTION":14.14388548,"ECCENTRICITY":0.0010692,"INCLINATION":71.0542,"RA_OF_ASC_NODE":70.6741,"ARG_OF_PERICENTER":304.17,"MEAN_ANOMALY":55.8409,"EPHEMERIS_TYPE":0,"CLASSIFICATION_TYPE":"U","NORAD_CAT_ID":23087,"ELEMENT_SET_NO":999,"REV_AT_EPOCH":65186,"BSTAR":7.5289e-5,"MEAN_MOTION_DOT":9.7e-7,"MEAN_MOTION_DDOT":0},{"OBJECT_NAME":"SL-16 R/B","OBJECT_ID":"1994-023B","EPOCH":"2026-04-28T20:02:52.406592","MEAN_MOTION":14.15015664,"ECCENTRICITY":0.0005014,"INCLINATION":70.9996,"RA_OF_ASC_NODE":325.5777,"ARG_OF_PERICENTER":238.4864,"MEAN_ANOMALY":121.5769,"EPHEMERIS_TYPE":0,"CLASSIFICATION_TYPE":"U","NORAD_CAT_ID":23088,"ELEMENT_SET_NO":999,"REV_AT_EPOCH":65318,"BSTAR":9.0669e-5,"MEAN_MOTION_DOT":1.28e-6,"MEAN_MOTION_DDOT":0},{"OBJECT_NAME":"SL-16 R/B","OBJECT_ID":"1994-074B","EPOCH":"2026-04-28T15:37:14.830176","MEAN_MOTION":14.7945913,"ECCENTRICITY":0.0007919,"INCLINATION":97.7033,"RA_OF_ASC_NODE":147.4275,"ARG_OF_PERICENTER":64.9001,"MEAN_ANOMALY":53.0648,"EPHEMERIS_TYPE":0,"CLASSIFICATION_TYPE":"U","NORAD_CAT_ID":23343,"ELEMENT_SET_NO":999,"REV_AT_EPOCH":69463,"BSTAR":6.875e-5,"MEAN_MOTION_DOT":4.64e-6,"MEAN_MOTION_DDOT":0},{"OBJECT_NAME":"SL-16 R/B","OBJECT_ID":"1994-077B","EPOCH":"2026-04-28T19:08:13.066080","MEAN_MOTION":14.15572821,"ECCENTRICITY":2.76e-5,"INCLINATION":70.9833,"RA_OF_ASC_NODE":247.0677,"ARG_OF_PERICENTER":72.6439,"MEAN_ANOMALY":287.4714,"EPHEMERIS_TYPE":0,"CLASSIFICATION_TYPE":"U","NORAD_CAT_ID":23405,"ELEMENT_SET_NO":999,"REV_AT_EPOCH":62332,"BSTAR":-1.307e-5,"MEAN_MOTION_DOT":-7.3e-7,"MEAN_MOTION_DDOT":0},{"OBJECT_NAME":"ARIANE 40+ R/B","OBJECT_ID":"1995-021B","EPOCH":"2026-04-28T19:02:11.742144","MEAN_MOTION":14.39805273,"ECCENTRICITY":0.0006511,"INCLINATION":98.4427,"RA_OF_ASC_NODE":189.5772,"ARG_OF_PERICENTER":2.8218,"MEAN_ANOMALY":108.2815,"EPHEMERIS_TYPE":0,"CLASSIFICATION_TYPE":"U","NORAD_CAT_ID":23561,"ELEMENT_SET_NO":999,"REV_AT_EPOCH":62645,"BSTAR":0.00010129,"MEAN_MOTION_DOT":2.74e-6,"MEAN_MOTION_DDOT":0},{"OBJECT_NAME":"SL-16 R/B","OBJECT_ID":"1995-058B","EPOCH":"2026-04-28T21:03:32.156928","MEAN_MOTION":14.15504139,"ECCENTRICITY":0.0011082,"INCLINATION":71.0209,"RA_OF_ASC_NODE":74.8845,"ARG_OF_PERICENTER":33.6441,"MEAN_ANOMALY":326.5383,"EPHEMERIS_TYPE":0,"CLASSIFICATION_TYPE":"U","NORAD_CAT_ID":23705,"ELEMENT_SET_NO":999,"REV_AT_EPOCH":57495,"BSTAR":-9.8974e-5,"MEAN_MOTION_DOT":-2.41e-6,"MEAN_MOTION_DDOT":0},{"OBJECT_NAME":"SL-16 R/B","OBJECT_ID":"1996-051B","EPOCH":"2026-04-28T14:22:29.858880","MEAN_MOTION":14.12428675,"ECCENTRICITY":0.0012507,"INCLINATION":70.761,"RA_OF_ASC_NODE":69.5987,"ARG_OF_PERICENTER":61.1127,"MEAN_ANOMALY":299.1246,"EPHEMERIS_TYPE":0,"CLASSIFICATION_TYPE":"U","NORAD_CAT_ID":24298,"ELEMENT_SET_NO":999,"REV_AT_EPOCH":52869,"BSTAR":7.6018e-5,"MEAN_MOTION_DOT":9.1e-7,"MEAN_MOTION_DDOT":0},{"OBJECT_NAME":"ORBVIEW 2 (SEASTAR)","OBJECT_ID":"1997-037A","EPOCH":"2026-04-28T17:48:42.846912","MEAN_MOTION":14.35527046,"ECCENTRICITY":0.00011,"INCLINATION":98.8645,"RA_OF_ASC_NODE":284.4018,"ARG_OF_PERICENTER":271.5567,"MEAN_ANOMALY":88.5491,"EPHEMERIS_TYPE":0,"CLASSIFICATION_TYPE":"U","NORAD_CAT_ID":24883,"ELEMENT_SET_NO":999,"REV_AT_EPOCH":51565,"BSTAR":0.00010902,"MEAN_MOTION_DOT":2.67e-6,"MEAN_MOTION_DDOT":0},{"OBJECT_NAME":"SL-16 R/B","OBJECT_ID":"1998-043G","EPOCH":"2026-04-28T19:52:22.834848","MEAN_MOTION":14.26060389,"ECCENTRICITY":0.0009017,"INCLINATION":98.8331,"RA_OF_ASC_NODE":72.5731,"ARG_OF_PERICENTER":225.0708,"MEAN_ANOMALY":134.974,"EPHEMERIS_TYPE":0,"CLASSIFICATION_TYPE":"U","NORAD_CAT_ID":25400,"ELEMENT_SET_NO":999,"REV_AT_EPOCH":44613,"BSTAR":3.5167e-5,"MEAN_MOTION_DOT":3.9e-7,"MEAN_MOTION_DDOT":0},{"OBJECT_NAME":"SL-16 R/B","OBJECT_ID":"1998-045B","EPOCH":"2026-04-28T20:43:47.529120","MEAN_MOTION":14.16196418,"ECCENTRICITY":0.0009315,"INCLINATION":71.0103,"RA_OF_ASC_NODE":76.0567,"ARG_OF_PERICENTER":299.694,"MEAN_ANOMALY":60.3256,"EPHEMERIS_TYPE":0,"CLASSIFICATION_TYPE":"U","NORAD_CAT_ID":25407,"ELEMENT_SET_NO":999,"REV_AT_EPOCH":43420,"BSTAR":-1.3047e-5,"MEAN_MOTION_DOT":-7.4e-7,"MEAN_MOTION_DDOT":0},{"OBJECT_NAME":"ISS (ZARYA)","OBJECT_ID":"1998-067A","EPOCH":"2026-04-28T15:38:17.094336","MEAN_MOTION":15.49006627,"ECCENTRICITY":0.0007088,"INCLINATION":51.632,"RA_OF_ASC_NODE":185.2859,"ARG_OF_PERICENTER":1.203,"MEAN_ANOMALY":358.8974,"EPHEMERIS_TYPE":0,"CLASSIFICATION_TYPE":"U","NORAD_CAT_ID":25544,"ELEMENT_SET_NO":999,"REV_AT_EPOCH":56407,"BSTAR":0.00013886,"MEAN_MOTION_DOT":7.212e-5,"MEAN_MOTION_DDOT":0},{"OBJECT_NAME":"CZ-4B R/B","OBJECT_ID":"1999-025C","EPOCH":"2026-04-28T18:21:09.391392","MEAN_MOTION":14.18274631,"ECCENTRICITY":0.003677,"INCLINATION":98.653,"RA_OF_ASC_NODE":161.8362,"ARG_OF_PERICENTER":199.1936,"MEAN_ANOMALY":273.1936,"EPHEMERIS_TYPE":0,"CLASSIFICATION_TYPE":"U","NORAD_CAT_ID":25732,"ELEMENT_SET_NO":999,"REV_AT_EPOCH":39526,"BSTAR":4.8192e-5,"MEAN_MOTION_DOT":5.7e-7,"MEAN_MOTION_DDOT":0},{"OBJECT_NAME":"OKEAN-O","OBJECT_ID":"1999-039A","EPOCH":"2026-04-28T17:41:48.067296","MEAN_MOTION":14.80406922,"ECCENTRICITY":0.0001583,"INCLINATION":97.9352,"RA_OF_ASC_NODE":178.0951,"ARG_OF_PERICENTER":113.137,"MEAN_ANOMALY":247.0009,"EPHEMERIS_TYPE":0,"CLASSIFICATION_TYPE":"U","NORAD_CAT_ID":25860,"ELEMENT_SET_NO":999,"REV_AT_EPOCH":44179,"BSTAR":9.5766e-5,"MEAN_MOTION_DOT":6.79e-6,"MEAN_MOTION_DDOT":0},{"OBJECT_NAME":"SL-16 R/B","OBJECT_ID":"1999-039B","EPOCH":"2026-04-28T17:42:28.869696","MEAN_MOTION":14.81793887,"ECCENTRICITY":0.001618,"INCLINATION":97.9875,"RA_OF_ASC_NODE":177.7339,"ARG_OF_PERICENTER":94.9503,"MEAN_ANOMALY":265.3557,"EPHEMERIS_TYPE":0,"CLASSIFICATION_TYPE":"U","NORAD_CAT_ID":25861,"ELEMENT_SET_NO":999,"REV_AT_EPOCH":44427,"BSTAR":8.1386e-5,"MEAN_MOTION_DOT":5.9e-6,"MEAN_MOTION_DDOT":0},{"OBJECT_NAME":"DELTA 2 R/B","OBJECT_ID":"1999-041E","EPOCH":"2026-04-28T08:19:30.521856","MEAN_MOTION":14.11933837,"ECCENTRICITY":0.0502422,"INCLINATION":51.76,"RA_OF_ASC_NODE":102.8993,"ARG_OF_PERICENTER":134.8627,"MEAN_ANOMALY":229.4273,"EPHEMERIS_TYPE":0,"CLASSIFICATION_TYPE":"U","NORAD_CAT_ID":25876,"ELEMENT_SET_NO":999,"REV_AT_EPOCH":37004,"BSTAR":0.00014752,"MEAN_MOTION_DOT":6.73e-6,"MEAN_MOTION_DDOT":0}]
